{
  "type": "FeatureCollection",
  "features": [
    {
      "type": "Feature",
      "properties": {
        "norad_id": 33986,
        "name": "COSMOS 2251 DEB",
        "group": "cosmos-2251-debris",
        "lat": -6.280308711284535,
        "lon": 135.53835666641825,
        "alt_km": 778.0894156511113,
        "timestamp": "2025-12-06T18:50:10.563014+00:00",
        "meta_object_name": "COSMOS 2251 DEB",
        "meta_object_id": "1993-036FV",
        "meta_epoch": "2025-12-06T08:19:44.057280",
        "meta_mean_motion": 14.43152982,
        "meta_eccentricity": 0.00401201,
        "meta_inclination": 74.0366,
        "meta_ra_of_asc_node": 314.5459,
        "meta_arg_of_pericenter": 28.7657,
        "meta_mean_anomaly": 43.841,
        "meta_ephemeris_type": 0,
        "meta_classification_type": "U",
        "meta_norad_cat_id": 33986,
        "meta_element_set_no": 999,
        "meta_rev_at_epoch": 87936,
        "meta_bstar": 0.0015168962,
        "meta_mean_motion_dot": 5.122e-05,
        "meta_mean_motion_ddot": 0,
        "tle_line1": "1 33986U 93036FV  25340.34703770  .00005122  00000+0  15169-2 0  9998",
        "tle_line2": "2 33986  74.0366 314.5459 0040120  28.7657  43.8410 14.43152982879362"
      },
      "geometry": {
        "type": "Point",
        "coordinates": [
          135.53835666641825,
          -6.280308711284535
        ]
      }
    },
    {
      "type": "Feature",
      "properties": {
        "norad_id": 33990,
        "name": "COSMOS 2251 DEB",
        "group": "cosmos-2251-debris",
        "lat": 69.75141434635522,
        "lon": -13.05148984386323,
        "alt_km": 1210.6183537985416,
        "timestamp": "2025-12-06T18:50:10.563024+00:00",
        "meta_object_name": "COSMOS 2251 DEB",
        "meta_object_id": "1993-036FZ",
        "meta_epoch": "2025-12-06T04:18:32.744160",
        "meta_mean_motion": 13.49960998,
        "meta_eccentricity": 0.04076137,
        "meta_inclination": 73.9284,
        "meta_ra_of_asc_node": 296.5262,
        "meta_arg_of_pericenter": 318.0124,
        "meta_mean_anomaly": 54.8686,
        "meta_ephemeris_type": 0,
        "meta_classification_type": "U",
        "meta_norad_cat_id": 33990,
        "meta_element_set_no": 999,
        "meta_rev_at_epoch": 82641,
        "meta_bstar": 0.0026324688,
        "meta_mean_motion_dot": 2.781e-05,
        "meta_mean_motion_ddot": 0,
        "tle_line1": "1 33990U 93036FZ  25340.17954565  .00002781  00000+0  26325-2 0  9998",
        "tle_line2": "2 33990  73.9284 296.5262 0407613 318.0124  54.8686 13.49960998826417"
      },
      "geometry": {
        "type": "Point",
        "coordinates": [
          -13.05148984386323,
          69.75141434635522
        ]
      }
    },
    {
      "type": "Feature",
      "properties": {
        "norad_id": 33992,
        "name": "COSMOS 2251 DEB",
        "group": "cosmos-2251-debris",
        "lat": -73.99635481566327,
        "lon": -103.53359352581128,
        "alt_km": 714.6126999279004,
        "timestamp": "2025-12-06T18:50:10.563034+00:00",
        "meta_object_name": "COSMOS 2251 DEB",
        "meta_object_id": "1993-036GB",
        "meta_epoch": "2025-12-06T07:50:31.987968",
        "meta_mean_motion": 14.66138202,
        "meta_eccentricity": 0.00516478,
        "meta_inclination": 74.024,
        "meta_ra_of_asc_node": 350.1056,
        "meta_arg_of_pericenter": 110.0283,
        "meta_mean_anomaly": 262.1836,
        "meta_ephemeris_type": 0,
        "meta_classification_type": "U",
        "meta_norad_cat_id": 33992,
        "meta_element_set_no": 999,
        "meta_rev_at_epoch": 89031,
        "meta_bstar": 0.0012586934,
        "meta_mean_motion_dot": 7.033e-05,
        "meta_mean_motion_ddot": 0,
        "tle_line1": "1 33992U 93036GB  25340.32675912  .00007033  00000+0  12587-2 0  9993",
        "tle_line2": "2 33992  74.0240 350.1056 0051647 110.0283 262.1836 14.66138202890315"
      },
      "geometry": {
        "type": "Point",
        "coordinates": [
          -103.53359352581128,
          -73.99635481566327
        ]
      }
    },
    {
      "type": "Feature",
      "properties": {
        "norad_id": 33994,
        "name": "COSMOS 2251 DEB",
        "group": "cosmos-2251-debris",
        "lat": -3.5312030771313783,
        "lon": -159.58229576576335,
        "alt_km": 741.8420011363442,
        "timestamp": "2025-12-06T18:50:10.563044+00:00",
        "meta_object_name": "COSMOS 2251 DEB",
        "meta_object_id": "1993-036GD",
        "meta_epoch": "2025-12-06T01:15:25.853184",
        "meta_mean_motion": 14.41208448,
        "meta_eccentricity": 0.00234099,
        "meta_inclination": 74.0424,
        "meta_ra_of_asc_node": 202.7844,
        "meta_arg_of_pericenter": 338.323,
        "meta_mean_anomaly": 179.2963,
        "meta_ephemeris_type": 0,
        "meta_classification_type": "U",
        "meta_norad_cat_id": 33994,
        "meta_element_set_no": 999,
        "meta_rev_at_epoch": 88323,
        "meta_bstar": 0.00016221278,
        "meta_mean_motion_dot": 4.99e-06,
        "meta_mean_motion_ddot": 0,
        "tle_line1": "1 33994U 93036GD  25340.05238256  .00000499  00000+0  16221-3 0  9990",
        "tle_line2": "2 33994  74.0424 202.7844 0023409 338.3230 179.2963 14.41208448883235"
      },
      "geometry": {
        "type": "Point",
        "coordinates": [
          -159.58229576576335,
          -3.5312030771313783
        ]
      }
    },
    {
      "type": "Feature",
      "properties": {
        "norad_id": 33995,
        "name": "COSMOS 2251 DEB",
        "group": "cosmos-2251-debris",
        "lat": -30.243504461772105,
        "lon": -40.163020460228374,
        "alt_km": 763.1302302450176,
        "timestamp": "2025-12-06T18:50:10.563054+00:00",
        "meta_object_name": "COSMOS 2251 DEB",
        "meta_object_id": "1993-036GE",
        "meta_epoch": "2025-12-05T18:25:46.716384",
        "meta_mean_motion": 14.34711525,
        "meta_eccentricity": 0.0060625,
        "meta_inclination": 74.0604,
        "meta_ra_of_asc_node": 132.105,
        "meta_arg_of_pericenter": 148.4676,
        "meta_mean_anomaly": 212.0133,
        "meta_ephemeris_type": 0,
        "meta_classification_type": "U",
        "meta_norad_cat_id": 33995,
        "meta_element_set_no": 999,
        "meta_rev_at_epoch": 87419,
        "meta_bstar": 0.0019511825,
        "meta_mean_motion_dot": 5.62e-05,
        "meta_mean_motion_ddot": 0,
        "tle_line1": "1 33995U 93036GE  25339.76790181  .00005620  00000+0  19512-2 0  9993",
        "tle_line2": "2 33995  74.0604 132.1050 0060625 148.4676 212.0133 14.34711525874193"
      },
      "geometry": {
        "type": "Point",
        "coordinates": [
          -40.163020460228374,
          -30.243504461772105
        ]
      }
    },
    {
      "type": "Feature",
      "properties": {
        "norad_id": 33999,
        "name": "COSMOS 2251 DEB",
        "group": "cosmos-2251-debris",
        "lat": 46.428486053264415,
        "lon": -99.69812958158428,
        "alt_km": 615.3813907634676,
        "timestamp": "2025-12-06T18:50:10.563064+00:00",
        "meta_object_name": "COSMOS 2251 DEB",
        "meta_object_id": "1993-036GJ",
        "meta_epoch": "2025-12-05T19:57:05.629824",
        "meta_mean_motion": 14.8312854,
        "meta_eccentricity": 0.00446114,
        "meta_inclination": 73.9199,
        "meta_ra_of_asc_node": 244.5516,
        "meta_arg_of_pericenter": 142.2043,
        "meta_mean_anomaly": 218.2282,
        "meta_ephemeris_type": 0,
        "meta_classification_type": "U",
        "meta_norad_cat_id": 33999,
        "meta_element_set_no": 999,
        "meta_rev_at_epoch": 89148,
        "meta_bstar": 0.0025144376,
        "meta_mean_motion_dot": 0.0002089,
        "meta_mean_motion_ddot": 0,
        "tle_line1": "1 33999U 93036GJ  25339.83131516  .00020890  00000+0  25144-2 0  9990",
        "tle_line2": "2 33999  73.9199 244.5516 0044611 142.2043 218.2282 14.83128540891483"
      },
      "geometry": {
        "type": "Point",
        "coordinates": [
          -99.69812958158428,
          46.428486053264415
        ]
      }
    },
    {
      "type": "Feature",
      "properties": {
        "norad_id": 34001,
        "name": "COSMOS 2251 DEB",
        "group": "cosmos-2251-debris",
        "lat": -42.708441190965765,
        "lon": -82.7809258642694,
        "alt_km": 767.3110765262545,
        "timestamp": "2025-12-06T18:50:10.563075+00:00",
        "meta_object_name": "COSMOS 2251 DEB",
        "meta_object_id": "1993-036GL",
        "meta_epoch": "2025-12-06T05:59:18.079584",
        "meta_mean_motion": 14.37085439,
        "meta_eccentricity": 0.00196549,
        "meta_inclination": 74.0384,
        "meta_ra_of_asc_node": 293.5213,
        "meta_arg_of_pericenter": 16.0609,
        "meta_mean_anomaly": 50.9327,
        "meta_ephemeris_type": 0,
        "meta_classification_type": "U",
        "meta_norad_cat_id": 34001,
        "meta_element_set_no": 999,
        "meta_rev_at_epoch": 88053,
        "meta_bstar": 0.00041236068,
        "meta_mean_motion_dot": 1.201e-05,
        "meta_mean_motion_ddot": 0,
        "tle_line1": "1 34001U 93036GL  25340.24951481  .00001201  00000+0  41236-3 0  9999",
        "tle_line2": "2 34001  74.0384 293.5213 0019654  16.0609  50.9327 14.37085439880532"
      },
      "geometry": {
        "type": "Point",
        "coordinates": [
          -82.7809258642694,
          -42.708441190965765
        ]
      }
    }
  ]
}